FLOCK 4X-6              
1 51043U 22002BM  22040.74726459  .00003456  00000+0  20311-3 0  9998
2 51043  97.5045 109.9699 0010520 143.8515 216.3428 15.12306392  4106
IRIS-A                  
1 51044U 22002BN  22040.48251797  .00003413  00000+0  20055-3 0  9996
2 51044  97.4995 109.6852 0010504 139.3593 220.8424 15.12312221  4065
FLOCK 4X-28             
1 51045U 22002BP  22040.41563183  .00003937  00000+0  23045-3 0  9998
2 51045  97.5018 109.6285 0011072 137.5152 222.6937 15.12363170  4052
VZLUSAT-3             
1 51046U 22002BQ  22040.48155303  .00004789  00000+0  27937-3 0  9997
2 51046  97.5053 109.7145 0010726 147.1673 213.0226 15.12381275  4060
FLOCK 4X-9              
1 51047U 22002BR  22040.48109553  .00003179  00000+0  18664-3 0  9993
2 51047  97.5062 109.7159 0011257 148.6437 211.5467 15.12398601  4061
FLOCK 4X-35             
1 51048U 22002BS  22040.54759028  .00003008  00000+0  17691-3 0  9999
2 51048  97.4997 109.7534 0010750 141.5658 218.6341 15.12374485  4073
FLOCK 4X-11             
1 51049U 22002BT  22040.74785815  .00002794  00000+0  16508-3 0  9992
2 51049  97.5007 109.9510 0010430 144.4070 215.7858 15.12272553  4106
MDASAT-18               
1 51050U 22002BU  22040.48365176  .00004071  00000+0  23887-3 0  9997
2 51050  97.5065 109.7165 0010393 149.1302 211.0542 15.12262611  4062
2022-002BV              
1 51051U 22002BV  22040.74811311  .00002380  00000+0  14119-3 0  9993
2 51051  97.5009 109.9498 0010225 141.0703 219.1266 15.12262137  4102
FLOCK 4X-40             
1 51052U 22002BW  22040.74903043  .00003050  00000+0  18013-3 0  9990
2 51052  97.5006 109.9482 0010035 143.1486 217.0436 15.12213607  4107
HYPSO-1                 
1 51053U 22002BX  22040.48617794  .00002878  00000+0  17081-3 0  9998
2 51053  97.4972 109.6745 0009724 147.4084 212.7749 15.12092577  4067
LEMUR-2-MIRIWARI        
1 51054U 22002BY  22040.74965186  .00005988  00000+0  34984-3 0  9995
2 51054  97.5045 109.9659 0009714 147.1973 212.9862 15.12234616  4105
FLOCK 4X-33             
1 51055U 22002BZ  22040.74927899  .00008820  00000+0  51312-3 0  9997
2 51055  97.5052 109.9694 0010316 148.4280 211.7571 15.12241417  4109
FLOCK 4X-24             
1 51056U 22002CA  22040.74938718  .00002753  00000+0  16308-3 0  9995
2 51056  97.5012 109.9507 0010083 139.4155 220.7829 15.12191170  4107
KEPLER-16 (ASTRAEUS)    
1 51057U 22002CB  22040.75055496  .00004240  00000+0  24941-3 0  9995
2 51057  97.5015 109.9500 0009680 142.9078 217.2823 15.12150498  4101
LEMUR-2-DJIRANG         
1 51058U 22002CC  22040.48580708  .00005711  00000+0  33441-3 0  9994
2 51058  97.5028 109.6966 0009593 145.3067 214.8791 15.12172226  4062
KEPLER-17 (KARINA)      
1 51059U 22002CD  22040.48623353  .00004408  00000+0  25930-3 0  9995
2 51059  97.5035 109.6983 0009884 150.5882 209.5906 15.12128944  4063
ETV-A1                  
1 51060U 22002CE  22040.83928586  .00001962  00000+0  11794-3 0  9997
2 51060  97.5045 110.0490 0010710 151.7797 320.0781 15.11982091  4119
BRO-5                   
1 51061U 22002CF  22040.75269209  .00003470  00000+0  20555-3 0  9990
2 51061  97.5075 109.9714 0010534 155.1853 204.9886 15.12016333  4107
2022-002CG              
1 51062U 22002CG  22040.41363057  .00005527  00000+0  32061-3 0  9990
2 51062  97.4996 109.6232 0011061 138.5470 221.6602 15.12513931  4059
2022-002CH              
1 51063U 22002CH  22040.47983301  .00005675  00000+0  32910-3 0  9994
2 51063  97.4994 109.6877 0011033 138.3655 221.8418 15.12512303  4065
FLOCK 4X-4              
1 51064U 22002CJ  22040.14977832  .00008169  00000+0  47283-3 0  9991
2 51064  97.5010 109.3691 0011142 140.2747 219.9302 15.12441282  4014
FLOCK 4X-7              
1 51065U 22002CK  22040.48103023  .00003959  00000+0  23148-3 0  9998
2 51065  97.5046 109.7129 0010827 145.7174 214.4758 15.12400367  4066
FLOCK 4X-14             
1 51066U 22002CL  22040.74538337  .00004180  00000+0  24405-3 0  9992
2 51066  97.5076 109.9829 0011533 148.7724 211.4194 15.12417559  4105
DEWASAT-1               
1 51067U 22002CM  22040.42445774  .00003610  00000+0  21463-3 0  9998
2 51067  97.5007 109.6167 0009238 155.0336 205.1343 15.11864449  4054
2022-002CN              
1 51068U 22002CN  22040.42532958  .00002548  00000+0  15294-3 0  9994
2 51068  97.5038 109.6273 0009557 157.0692 203.0967 15.11790226  4058
2022-002CP              
1 51069U 22002CP  22040.47887714  .00005742  00000+0  33240-3 0  9993
2 51069  97.4980 109.6853 0010963 139.5620 220.6427 15.12567208  4067
ICEYE-X14               
1 51070U 22002CQ  22040.82876832  .00004454  00000+0  25640-3 0  9997
2 51070  97.5022 110.0596 0012739 141.7754 354.9528 15.12881086  4115
CAPELLA-8-WHITNEY       
1 51071U 22002CR  22040.47157543  .00014333  00000+0  80881-3 0  9995
2 51071  97.5030 109.7147 0012246 145.2412 214.9621 15.13194165  4064
CAPELLA-7-WHITNEY       
1 51072U 22002CS  22040.47140866  .00014285  00000+0  80566-3 0  9992
2 51072  97.5027 109.7170 0011563 148.0642 212.1292 15.13221485  4064
2022-002CT              
1 51073U 22002CT  22040.70203768  .00014330  00000+0  76453-3 0  9991
2 51073  97.5169 110.0735 0014534 173.9740 186.1669 15.15167876  4109
DELFI-PQ                
1 51074U 22002CU  22040.70721620  .00007203  00000+0  39189-3 0  9990
2 51074  97.5232 110.0870 0014847 171.0032 189.1469 15.14667031  4109
USA 320                 
1 51075U 22002CV  22040.73237011  .00007589  00000+0  43659-3 0  9994
2 51075  97.5033 109.9811 0011748 197.8393 162.2427 15.12683882  4100
2022-002CW              
1 51076U 22002CW  22040.51457368  .00004445  00000+0  24595-3 0  9996
2 51076  97.5030 109.8111 0015261 168.0693 192.0903 15.14270710  4077
USA 321                 
1 51077U 22002CX  22040.59896219  .00012130  00000+0  69500-3 0  9992
2 51077  97.5039 109.8536 0011471 204.8641 155.2039 15.12694452  4082
USA 322                 
1 51078U 22002CY  22040.53507738  .00003907  00000+0  22668-3 0  9998
2 51078  97.5039 109.7859 0011677 202.1516 157.9212 15.12686040  4075
USA 323                 
1 51079U 22002CZ  22040.46549791  .00006836  00000+0  39367-3 0  9994
2 51079  97.5039 109.7251 0011838 198.0533 162.0279 15.12683569  4065
2022-002DA              
1 51080U 22002DA  22040.44368287  .00005273  00000+0  28874-3 0  9998
2 51080  97.5244 109.8288 0014419 171.3178 188.8306 15.14568027  4063
2022-002DB              
1 51081U 22002DB  22040.44402894  .00005562  00000+0  30448-3 0  9993
2 51081  97.5235 109.8256 0014791 171.2170 188.9323 15.14552368  4064
2022-002DC              
1 51082U 22002DC  22040.46280539  .00009320  00000+0  52188-3 0  9997
2 51082  97.4931 109.6898 0012958 129.1180 231.1206 15.13572126  4067
2022-002DD              
1 51083U 22002DD  22040.41786360  .00004291  00000+0  25165-3 0  9993
2 51083  97.5004 109.6250 0010330 148.4958 211.6893 15.12249857  4056
DODONA                  
1 51084U 22002DE  22040.47005723  .00006286  00000+0  35570-3 0  9994
2 51084  97.5042 109.7195 0008503 134.8082 225.3842 15.13371214  4065
VZLUSAT-2               
1 51085U 22002DF  22040.48820419  .00002860  00000+0  17234-3 0  9994
2 51085  97.5033 109.6935 0015679 151.2895 208.9202 15.11476219  4060
LABSAT                  
1 51086U 22002DG  22040.53793683  .00005386  00000+0  30511-3 0  9992
2 51086  97.4970 109.7662 0008567 130.5101 229.6878 15.13399674  4077
STORK-1                 
1 51087U 22002DH  22040.41720916  .00006073  00000+0  35880-3 0  9997
2 51087  97.5089 109.6456 0014714 149.3133 210.8961 15.11772901  4053
STORK-2                 
1 51088U 22002DJ  22040.47655410  .00006400  00000+0  36550-3 0  9999
2 51088  97.4977 109.6940 0011211 130.9790 229.2413 15.13014366  4064
2022-003A               
1 51094U 22003A   22040.71241858  .00007276  00000+0  32488-3 0  9999
2 51094  44.9791  45.8431 0004281  84.2515 275.8792 15.21982120  4083
2022-003B               
1 51095U 22003B   22040.70589593  .00005408  00000+0  24228-3 0  9998
2 51095  44.9826  45.7961 0002566  65.0475 295.0662 15.22317436  4078
2022-003C               
1 51096U 22003C   22040.37297549  .00005335  00000+0  23728-3 0  9992
2 51096  44.9851  47.5415 0002093  37.1061 322.9958 15.22589763  4024
GEARRS-3                
1 51097U 22003D   22040.43711125  .00005404  00000+0  23958-3 0  9993
2 51097  44.9843  47.1769 0002271  28.9116 331.1888 15.22677772  4034
STORK-3                 
1 51098U 22003E   22040.78390503  .00011003  00000+0  46286-3 0  9996
2 51098  44.9894  45.1439 0002809 345.3572 189.4620 15.23564629  4082
LEMUR-2-KRYWE           
1 51099U 22003F   22040.35683989  .00009778  00000+0  41203-3 0  9993
2 51099  44.9911  47.4283 0003700 341.2757  18.7980 15.23617237  4027
STEAMSAT-2              
1 51100U 22003G   22040.89347078  .00015302  00000+0  63355-3 0  9993
2 51100  44.9907  44.5096 0003414 337.6002  96.8539 15.23839469  4096
LAUNCHERONE R/B         
1 51101U 22003H   22040.47424590  .00011052  00000+0  30693-3 0  9990
2 51101  45.0264  44.2198 0052153   0.2685 359.8221 15.35738654  4074
SHIYAN-13 (SY-13)       
1 51102U 22004A   22041.05092117  .00003988  00000+0  19035-3 0  9999
2 51102  98.6734 105.1653 0652447  76.3837 290.9110 14.19585898  3408
CZ-2D R/B               
1 51103U 22004B   22040.47988028  .00006402  00000+0  29932-3 0  9991
2 51103  98.6727 104.6155 0651762  77.7313 289.6024 14.20022919  3282
STARLINK-3366           
1 51104U 22005A   22040.83334491 -.00016980  00000+0 -11676-3 0  9992
2 51104  53.2169 166.6569 0002046  33.9142  96.7288 15.73206021  4744
STARLINK-3350           
1 51105U 22005B   22040.83334491  .00085342  00000+0  60725-3 0  9998
2 51105  53.2162 166.6696 0002155  31.3509  92.3321 15.73163126  4747
STARLINK-3176           
1 51106U 22005C   22040.83334491 -.00036614  00000+0 -25707-3 0  9990
2 51106  53.2183 166.6630 0002081  27.4124 100.0319 15.73243868  4742
